IRIDIUM 155             
1 43573U 18061E   22029.45850242  .00000120  00000+0  35846-4 0  9995
2 43573  86.3983   5.2310 0002110  99.3693 260.7741 14.34220347184061
IRIDIUM 154             
1 43574U 18061F   22029.43947305  .00000122  00000+0  36403-4 0  9993
2 43574  86.3987   5.2959 0002029  80.6733 279.4693 14.34219439184111
IRIDIUM 163             
1 43575U 18061G   22029.42045365  .00000124  00000+0  37234-4 0  9993
2 43575  86.3984   5.2682 0002562  83.1940 276.9547 14.34216487184088
IRIDIUM 156             
1 43576U 18061H   22029.46484954  .00000121  00000+0  35979-4 0  9990
2 43576  86.3985   5.2549 0002434  91.9476 268.1998 14.34219446184082
IRIDIUM 164             
1 43577U 18061J   22029.44580398  .00000126  00000+0  37781-4 0  9996
2 43577  86.3985   5.2787 0002188  80.4984 279.6459 14.34214651184127
IRIDIUM 159             
1 43578U 18061K   22029.48387828  .00000122  00000+0  36436-4 0  9996
2 43578  86.3985   5.2334 0002094  82.1519 277.9915 14.34215237184090
IRIDIUM 180             
1 43922U 19002A   22029.48335813  .00000130  00000+0  39296-4 0  9998
2 43922  86.3979 302.1086 0002281  63.2588 296.8841 14.34221978159700
IRIDIUM 176             
1 43923U 19002B   22029.47097193  .00000375  00000+0  55609-4 0  9991
2 43923  86.6114 302.1489 0002096  87.4169 272.7288 14.72254532163885
IRIDIUM 168             
1 43924U 19002C   22029.47702475  .00000136  00000+0  41655-4 0  9999
2 43924  86.3982 302.1435 0001967  76.0495 284.0919 14.34215993159685
IRIDIUM 173             
1 43925U 19002D   22029.46433864  .00000126  00000+0  38029-4 0  9992
2 43925  86.3979 302.1028 0002048  78.7601 281.3825 14.34221408159661
IRIDIUM 169             
1 43926U 19002E   22029.53907656  .00000139  00000+0  38965-4 0  9999
2 43926  86.4256 333.6732 0003979 183.0812 177.0363 14.38605175160245
IRIDIUM 172             
1 43927U 19002F   22029.45798266  .00000017  00000+0 -96419-6 0  9992
2 43927  86.3980 302.1085 0002074  76.1356 284.0071 14.34213651159671
IRIDIUM 175             
1 43928U 19002G   22029.46481464  .00000370  00000+0  54778-4 0  9994
2 43928  86.6115 301.9777 0002397  78.4220 281.7266 14.72249472163872
IRIDIUM 171             
1 43929U 19002H   22029.50873294  .00000134  00000+0  40695-4 0  9997
2 43929  86.3988 302.2160 0001930  77.3790 282.7621 14.34219126159670
IRIDIUM 170             
1 43930U 19002J   22029.27327997  .00000370  00000+0  54780-4 0  9999
2 43930  86.6114 302.2372 0002174  83.4457 276.7007 14.72250240163861
IRIDIUM 167             
1 43931U 19002K   22029.50238236  .00000134  00000+0  40666-4 0  9999
2 43931  86.3979 302.0982 0002084  69.1797 290.9622 14.34213163159677
